<?xml version="1.0" encoding="UTF-8"?>
<gpx version="1.1" creator="BUP Tracker" xmlns="http://www.topografix.com/GPX/1/1">
  <metadata>
    <name>BUP Shuttle Loop</name>
  </metadata>
  <trk>
    <name>BUP Shuttle Loop</name>
    <trkseg>
      <trkpt lat="23.841100" lon="90.355200">
        <time>2024-01-01T00:00:00Z</time>
      </trkpt>
      <trkpt lat="23.841900" lon="90.357600">
        <time>2024-01-01T00:01:00Z</time>
      </trkpt>
      <trkpt lat="23.840300" lon="90.358800">
        <time>2024-01-01T00:02:00Z</time>
      </trkpt>
      <trkpt lat="23.838900" lon="90.357400">
        <time>2024-01-01T00:03:00Z</time>
      </trkpt>
      <trkpt lat="23.838400" lon="90.355700">
        <time>2024-01-01T00:04:00Z</time>
      </trkpt>
      <trkpt lat="23.841100" lon="90.355200">
        <time>2024-01-01T00:05:00Z</time>
      </trkpt>
    </trkseg>
  </trk>
</gpx>
